{
    "links": {
        "self": "http://www.neowsapp.com/rest/v1/neo/54054778?api_key=iIulBulltgU6a56xZRHN4H3l9WmuAYTsLGpBGhQ2"
    },
    "id": "54054778",
    "neo_reference_id": "54054778",
    "name": "(2020 TO)",
    "designation": "2020 TO",
    "nasa_jpl_url": "http://ssd.jpl.nasa.gov/sbdb.cgi?sstr=54054778",
    "absolute_magnitude_h": 23.349,
    "estimated_diameter": {
        "kilometers": {
            "estimated_diameter_min": 0.0568532082,
            "estimated_diameter_max": 0.1271276382
        },
        "meters": {
            "estimated_diameter_min": 56.8532081812,
            "estimated_diameter_max": 127.1276382322
        },
        "miles": {
            "estimated_diameter_min": 0.0353269348,
            "estimated_diameter_max": 0.0789934277
        },
        "feet": {
            "estimated_diameter_min": 186.5262795293,
            "estimated_diameter_max": 417.0854406176
        }
    },
    "is_potentially_hazardous_asteroid": false,
    "close_approach_data": [
        {
            "close_approach_date": "2020-09-30",
            "close_approach_date_full": "2020-Sep-30 17:30",
            "epoch_date_close_approach": 1601487000000,
            "relative_velocity": {
                "kilometers_per_second": "9.4504274555",
                "kilometers_per_hour": "34021.5388397465",
                "miles_per_hour": "21139.6611751747"
            },
            "miss_distance": {
                "astronomical": "0.190754787",
                "lunar": "74.203612143",
                "kilometers": "28536509.82750369",
                "miles": "17731764.973943322"
            },
            "orbiting_body": "Earth"
        }
    ],
    "orbital_data": {
        "orbit_id": "6",
        "orbit_determination_date": "2020-10-24 07:46:22",
        "first_observation_date": "2020-10-06",
        "last_observation_date": "2020-10-23",
        "data_arc_in_days": 17,
        "observations_used": 52,
        "orbit_uncertainty": "7",
        "minimum_orbit_intersection": ".1909",
        "jupiter_tisserand_invariant": "4.205",
        "epoch_osculation": "2459000.5",
        "eccentricity": ".3184475735158729",
        "semi_major_axis": "1.634884506732928",
        "inclination": "15.83276754726139",
        "ascending_node_longitude": "207.9715197375676",
        "orbital_period": "763.5351661214893",
        "perihelion_distance": "1.114259502585132",
        "perihelion_argument": "125.8882282306465",
        "aphelion_distance": "2.155509510880724",
        "perihelion_time": "2459088.419245877297",
        "mean_anomaly": "318.5468621221426",
        "mean_motion": ".4714910536847741",
        "equinox": "J2000",
        "orbit_class": {
            "orbit_class_type": "AMO",
            "orbit_class_description": "Near-Earth asteroid orbits similar to that of 1221 Amor",
            "orbit_class_range": "1.017 AU < q (perihelion) < 1.3 AU"
        }
    },
    "is_sentry_object": false
}